ONEWEB-0415             
1 51624U 22012C   24181.55461123 -.00000497  00000+0 -14596-2 0  9996
2 51624  87.8931 178.9755 0001708  82.4830 277.6492 13.10371716115306
ONEWEB-0416             
1 51625U 22012D   24181.48988070 -.00000501  00000+0 -14707-2 0  9994
2 51625  87.8942 178.9837 0002017  89.0936 271.0422 13.10376218115330
ONEWEB-0422             
1 51626U 22012E   24181.47819334  .00000093  00000+0  20661-3 0  9991
2 51626  87.9175 148.7336 0002782  75.6820 284.4620 13.17649045120579
ONEWEB-0423             
1 51627U 22012F   24181.39580645  .00000064  00000+0  13271-3 0  9990
2 51627  87.9176 148.7517 0002222  85.6062 274.5323 13.17648447119179
ONEWEB-0425             
1 51628U 22012G   24181.72891613 -.00000181  00000+0 -55478-3 0  9995
2 51628  87.8941 178.9196 0002193  98.1610 261.9766 13.10375054116657
ONEWEB-0428             
1 51629U 22012H   24181.55627178 -.00000556  00000+0 -16291-2 0  9995
2 51629  87.8937 178.9694 0002085  79.6069 280.5294 13.10371424115309
ONEWEB-0431             
1 51630U 22012J   24181.52627739  .00000715  00000+0  20107-2 0  9993
2 51630  87.8930 178.9716 0001958  67.3449 292.7886 13.10371409115353
ONEWEB-0434             
1 51631U 22012K   24181.50316153  .00000122  00000+0  31188-3 0  9991
2 51631  87.8942 178.9915 0002203  86.0394 274.0985 13.10375052115338
